IRIDIUM 119             
1 42959U 17061E   25021.09553979 -.00000017  00000+0 -13098-4 0  9995
2 42959  86.3950 239.1988 0001665  94.7448 265.3938 14.34217410381416
IRIDIUM 107             
1 42960U 17061F   25021.53317903 -.00000114  00000+0 -47625-4 0  9992
2 42960  86.3949 239.0335 0001948 100.8244 259.3171 14.34217374381497
IRIDIUM 132             
1 42961U 17061G   25020.70230210  .00000530  00000+0  18217-3 0  9990
2 42961  86.3944 239.3646 0002073  91.1766 268.9667 14.34216442381369
IRIDIUM 136             
1 42962U 17061H   25021.08285087  .00000620  00000+0  21421-3 0  9996
2 42962  86.3945 239.2098 0001752  98.5804 261.5590 14.34220739381434
IRIDIUM 139             
1 42963U 17061J   25020.67058632  .00000066  00000+0  16501-4 0  9993
2 42963  86.3947 239.4358 0001989  97.6572 262.4849 14.34217888381384
IRIDIUM 125             
1 42964U 17061K   25021.14628835  .00000496  00000+0  17007-3 0  9993
2 42964  86.3951 239.2887 0001709 102.0080 258.1307 14.34208993381467
IRIDIUM 135             
1 43070U 17083A   25020.98086957  .00000165  00000+0  51721-4 0  9995
2 43070  86.4006 176.0916 0002111  88.9041 271.2397 14.34216971370734
IRIDIUM 138             
1 43071U 17083B   25020.93646613  .00000202  00000+0  65147-4 0  9991
2 43071  86.3994 175.8006 0001283  90.9176 269.2167 14.34221231370713
